[{"OBJECT_NAME":"CENTAURI-8","OBJECT_ID":"2025-009DK","EPOCH":"2026-03-09T17:25:58.526112","MEAN_MOTION":14.9722833,"ECCENTRICITY":0.00030201,"INCLINATION":97.7096,"RA_OF_ASC_NODE":150.1876,"ARG_OF_PERICENTER":109.5881,"MEAN_ANOMALY":250.5667,"EPHEMERIS_TYPE":0,"CLASSIFICATION_TYPE":"U","NORAD_CAT_ID":62714,"ELEMENT_SET_NO":999,"REV_AT_EPOCH":6259,"BSTAR":0.00038891127,"MEAN_MOTION_DOT":4.445e-5,"MEAN_MOTION_DDOT":0},{"OBJECT_NAME":"STARLINK-35476","OBJECT_ID":"2025-280E","EPOCH":"2026-03-09T21:33:09.277920","MEAN_MOTION":14.98331795,"ECCENTRICITY":0.00026365,"INCLINATION":70.0019,"RA_OF_ASC_NODE":334.0691,"ARG_OF_PERICENTER":266.3265,"MEAN_ANOMALY":93.7592,"EPHEMERIS_TYPE":0,"CLASSIFICATION_TYPE":"U","NORAD_CAT_ID":66825,"ELEMENT_SET_NO":999,"REV_AT_EPOCH":1610,"BSTAR":0.00027541803,"MEAN_MOTION_DOT":3.195e-5,"MEAN_MOTION_DDOT":0}]
